[{"OBJECT_NAME":"STARLINK-31345","OBJECT_ID":"2024-027L","EPOCH":"2026-03-09T23:13:52.767840","MEAN_MOTION":15.30186465,"ECCENTRICITY":0.00010508,"INCLINATION":53.161,"RA_OF_ASC_NODE":308.1399,"ARG_OF_PERICENTER":101.158,"MEAN_ANOMALY":258.9539,"EPHEMERIS_TYPE":0,"CLASSIFICATION_TYPE":"U","NORAD_CAT_ID":58941,"ELEMENT_SET_NO":999,"REV_AT_EPOCH":11737,"BSTAR":1.9177052e-5,"MEAN_MOTION_DOT":2.09e-6,"MEAN_MOTION_DDOT":0},{"OBJECT_NAME":"FLOCK 4BE-27","OBJECT_ID":"2024-149AX","EPOCH":"2026-03-09T18:04:53.053248","MEAN_MOTION":15.32593322,"ECCENTRICITY":0.00027324,"INCLINATION":97.3862,"RA_OF_ASC_NODE":150.6783,"ARG_OF_PERICENTER":305.898,"MEAN_ANOMALY":54.2008,"EPHEMERIS_TYPE":0,"CLASSIFICATION_TYPE":"U","NORAD_CAT_ID":60513,"ELEMENT_SET_NO":999,"REV_AT_EPOCH":8690,"BSTAR":0.00036576028,"MEAN_MOTION_DOT":0.00011439,"MEAN_MOTION_DDOT":0}]
